NORAD_CAT_ID,OBJECT_NAME,OBJECT_TYPE,EPOCH,MEAN_MOTION,ECCENTRICITY,INCLINATION,RA_OF_ASC_NODE,ARG_OF_PERICENTER,MEAN_ANOMALY,BSTAR,MEAN_MOTION_DOT,MEAN_MOTION_DDOT,TLE_LINE0,TLE_LINE1,TLE_LINE2,SEMIMAJOR_AXIS,PERIOD,APOGEE,PERIGEE,DECAYED
54202.0,STARLINK-5205,PAYLOAD,2023-02-28 21:07:46,15.0882395,0.0001003,53.2171,273.4804,103.846,256.2644,-0.00029199,-4.93e-05,0.0,0 STARLINK-5205,1 54202U 22141AX  23059.88040036 -.00004930  00000-0 -29199-3 0  9992,2 54202  53.2171 273.4804 0001003 103.8460 256.2644 15.08823950 19211,6917.929,95.439,540.488,539.101,0.0
54202.0,STARLINK-5205,PAYLOAD,2023-03-01 17:47:47,15.08834218,9.87e-05,53.2161,269.6143,105.5083,254.6018,-1.8327e-05,-5.79e-06,0.0,0 STARLINK-5205,1 54202U 22141AX  23060.74152212 -.00000579  00000-0 -18327-4 0  9996,2 54202  53.2161 269.6143 0000987 105.5083 254.6018 15.08834218 19578,6917.898,95.438,540.446,539.08,0.0
54202.0,STARLINK-5205,PAYLOAD,2023-03-01 20:58:33,15.08847343,0.0001208,53.2173,269.022,110.9332,249.1789,0.00020307,2.946e-05,0.0,0 STARLINK-5205,1 54202U 22141AX  23060.87399711  .00002946  00000-0  20307-3 0  9995,2 54202  53.2173 269.0220 0001208 110.9332 249.1789 15.08847343 19369,6917.858,95.437,540.559,538.887,0.0
54202.0,STARLINK-5205,PAYLOAD,2023-03-02 00:09:19,15.08850228,9.87e-05,53.2167,268.4247,111.4064,248.7033,0.00026095,3.869e-05,0.0,0 STARLINK-5205,1 54202U 22141AX  23061.00647486  .00003869  00000-0  26095-3 0  9991,2 54202  53.2167 268.4247 0000987 111.4064 248.7033 15.08850228 19616,6917.849,95.437,540.397,539.031,0.0
54202.0,STARLINK-5205,PAYLOAD,2023-03-02 19:13:56,15.08849645,9e-05,53.2163,264.8567,115.6787,244.4298,0.00041104,6.262e-05,0.0,0 STARLINK-5205,1 54202U 22141AX  23061.80135392  .00006262  00000-0  41104-3 0  9995,2 54202  53.2163 264.8567 0000900 115.6787 244.4298 15.08849645 19730,6917.851,95.437,540.339,539.093,0.0
54202.0,STARLINK-5205,PAYLOAD,2023-03-03 12:43:11,15.08843529,0.0001192,53.2164,261.584,111.1787,248.9333,0.00016639,2.361e-05,0.0,0 STARLINK-5205,1 54202U 22141AX  23062.52999508  .00002361  00000-0  16639-3 0  9993,2 54202  53.2164 261.5840 0001192 111.1787 248.9333 15.08843529 19840,6917.87,95.437,540.559,538.91,0.0
54202.0,STARLINK-5205,PAYLOAD,2023-03-03 22:15:29,15.08849847,7.32e-05,53.2162,259.8013,90.5179,269.5897,-3.6915e-05,-8.75e-06,0.0,0 STARLINK-5205,1 54202U 22141AX  23062.92743011 -.00000875  00000-0 -36915-4 0  9993,2 54202  53.2162 259.8013 0000732  90.5179 269.5897 15.08849847 19678,6917.85,95.437,540.222,539.209,0.0
54202.0,STARLINK-5205,PAYLOAD,2023-03-04 12:33:58,15.08841342,8.23e-05,53.2155,257.1248,87.1477,272.9609,-6.6759e-05,-1.35e-05,0.0,0 STARLINK-5205,1 54202U 22141AX  23063.52359448 -.00001350  00000-0 -66759-4 0  9995,2 54202  53.2155 257.1248 0000823  87.1477 272.9609 15.08841342 19766,6917.876,95.437,540.311,539.172,0.0
54202.0,STARLINK-5205,PAYLOAD,2023-03-04 22:06:17,15.08845008,9.57e-05,53.2152,255.3409,81.483,278.627,-3.5228e-06,-3.44e-06,0.0,0 STARLINK-5205,1 54202U 22141AX  23063.92103215 -.00000344  00000-0 -35228-5 0  9998,2 54202  53.2152 255.3409 0000957  81.4830 278.6270 15.08845008 19827,6917.865,95.437,540.392,539.068,0.0
54202.0,STARLINK-5205,PAYLOAD,2023-03-05 06:03:12,15.0884548,7.03e-05,53.2146,253.8542,90.3028,269.8045,7.2715e-06,-1.72e-06,0.0,0 STARLINK-5205,1 54202U 22141AX  23064.25223117 -.00000172  00000-0  72715-5 0  9999,2 54202  53.2146 253.8542 0000703  90.3028 269.8045 15.08845480 19879,6917.864,95.437,540.215,539.242,0.0
54202.0,STARLINK-5205,PAYLOAD,2023-03-05 18:46:18,15.08838467,8.67e-05,53.2153,251.4745,85.7761,274.333,0.00011835,1.596e-05,0.0,0 STARLINK-5205,1 54202U 22141AX  23064.78215878  .00001596  00000-0  11835-3 0  9996,2 54202  53.2153 251.4745 0000867  85.7761 274.3330 15.08838467 20180,6917.885,95.438,540.35,539.15,0.0
54202.0,STARLINK-5205,PAYLOAD,2023-03-05 23:32:27,15.08850317,0.0001292,53.217,250.5814,105.3496,254.7639,0.00024415,3.601e-05,0.0,0 STARLINK-5205,1 54202U 22141AX  23064.98087370  .00003601  00000-0  24415-3 0  9999,2 54202  53.2170 250.5814 0001292 105.3496 254.7639 15.08850317 20219,6917.849,95.437,540.608,538.82,0.0
54202.0,STARLINK-5205,PAYLOAD,2023-03-06 12:15:33,15.08836642,0.0001042,53.2153,248.2039,93.319,266.7921,8.0249e-05,9.9e-06,0.0,0 STARLINK-5205,1 54202U 22141AX  23065.51080111  .00000990  00000-0  80249-4 0  9991,2 54202  53.2153 248.2039 0001042  93.3190 266.7921 15.08836642 20293,6917.891,95.438,540.476,539.035,0.0
54202.0,STARLINK-5205,PAYLOAD,2023-03-06 21:47:51,15.08842391,0.0001136,53.2147,246.4195,95.3255,264.7867,0.00014648,2.044e-05,0.0,0 STARLINK-5205,1 54202U 22141AX  23065.90823916  .00002044  00000-0  14648-3 0  9993,2 54202  53.2147 246.4195 0001136  95.3255 264.7867 15.08842391 20124,6917.873,95.437,540.524,538.952,0.0
54202.0,STARLINK-5205,PAYLOAD,2023-03-07 18:27:52,15.08850014,0.0001211,53.2143,242.5546,87.7568,272.3562,0.00027283,4.058e-05,0.0,0 STARLINK-5205,1 54202U 22141AX  23066.76935597  .00004058  00000-0  27283-3 0  9993,2 54202  53.2143 242.5546 0001211  87.7568 272.3562 15.08850014 20480,6917.85,95.437,540.553,538.877,0.0
54202.0,STARLINK-5205,PAYLOAD,2023-03-07 21:38:38,15.08850449,0.000116,53.2145,241.9598,85.3486,274.7639,0.00029663,4.437e-05,0.0,0 STARLINK-5205,1 54202U 22141AX  23066.90183569  .00004437  00000-0  29663-3 0  9998,2 54202  53.2145 241.9598 0001160  85.3486 274.7639 15.08850449 20278,6917.848,95.437,540.516,538.911,0.0
54202.0,STARLINK-5205,PAYLOAD,2023-03-08 11:57:07,15.08835048,0.0001308,53.214,239.2814,103.9699,256.1439,7.5816e-06,-1.67e-06,0.0,0 STARLINK-5205,1 54202U 22141AX  23067.49800262 -.00000167  00000-0  75816-5 0  9999,2 54202  53.2140 239.2814 0001308 103.9699 256.1439 15.08835048 20596,6917.896,95.438,540.665,538.856,0.0
54202.0,STARLINK-5205,PAYLOAD,2023-03-08 21:29:26,15.08847959,0.0001443,53.2148,237.4995,99.6184,260.4971,0.00034221,5.164e-05,0.0,0 STARLINK-5205,1 54202U 22141AX  23067.89544064  .00005164  00000-0  34221-3 0  9992,2 54202  53.2148 237.4995 0001443  99.6184 260.4971 15.08847959 20429,6917.856,95.437,540.719,538.723,0.0
54202.0,STARLINK-5205,PAYLOAD,2023-03-09 03:50:58,15.0884721,0.0001312,53.2163,236.3095,93.3543,266.7599,0.00032707,4.922e-05,0.0,0 STARLINK-5205,1 54202U 22141AX  23068.16039931  .00004922  00000-0  32707-3 0  9993,2 54202  53.2163 236.3095 0001312  93.3543 266.7599 15.08847210 20694,6917.858,95.437,540.631,538.816,0.0
54202.0,STARLINK-5205,PAYLOAD,2023-03-09 18:09:26,15.08849099,7.77e-05,53.2169,233.6329,71.8844,288.2233,0.00038011,5.768e-05,0.0,0 STARLINK-5205,1 54202U 22141AX  23068.75655841  .00005768  00000-0  38011-3 0  9995,2 54202  53.2169 233.6329 0000777  71.8844 288.2233 15.08849099 20555,6917.853,95.437,540.255,539.18,0.0
54202.0,STARLINK-5205,PAYLOAD,2023-03-10 21:11:00,15.08840016,0.0001383,53.217,228.5785,87.1526,272.9625,0.00014234,1.978e-05,0.0,0 STARLINK-5205,1 54202U 22141AX  23069.88264541  .00001978  00000-0  14234-3 0  9993,2 54202  53.2170 228.5785 0001383  87.1526 272.9625 15.08840016 20721,6917.88,95.438,540.702,538.789,0.0
54202.0,STARLINK-5205,PAYLOAD,2023-03-11 03:32:32,15.08828318,0.0001066,53.2184,227.3891,111.6129,248.4977,-0.00022589,-3.88e-05,0.0,0 STARLINK-5205,1 54202U 22141AX  23070.14760190 -.00003880  00000-0 -22589-3 0  9993,2 54202  53.2184 227.3891 0001066 111.6129 248.4977 15.08828318 20999,6917.916,95.438,540.519,539.044,0.0
54202.0,STARLINK-5205,PAYLOAD,2023-03-11 13:04:51,15.08842828,0.0001321,53.2172,225.6051,90.1293,269.9851,0.00025968,3.848e-05,0.0,0 STARLINK-5205,1 54202U 22141AX  23070.54504603  .00003848  00000-0  25968-3 0  9998,2 54202  53.2172 225.6051 0001321  90.1293 269.9851 15.08842828 20825,6917.872,95.437,540.651,538.823,0.0
54202.0,STARLINK-5205,PAYLOAD,2023-03-11 19:26:24,15.08861941,0.0001406,53.217,224.4162,93.5759,266.5394,0.0020173,0.00031983,0.0,0 STARLINK-5205,1 54202U 22141AX  23070.81000620  .00031983  00000-0  20173-2 0  9991,2 54202  53.2170 224.4162 0001406  93.5759 266.5394 15.08861941 21093,6917.813,95.436,540.651,538.706,0.0
54202.0,STARLINK-5205,PAYLOAD,2023-03-11 21:01:47,15.08868719,0.0001344,53.2168,224.1182,96.7942,263.3203,0.002081,0.00033013,0.0,0 STARLINK-5205,1 54202U 22141AX  23070.87624455  .00033013  00000-0  20810-2 0  9999,2 54202  53.2168 224.1182 0001344  96.7942 263.3203 15.08868719 20878,6917.793,95.436,540.587,538.728,0.0
54202.0,STARLINK-5205,PAYLOAD,2023-03-12 00:12:34,15.0883111,0.0001188,53.2169,223.5234,91.8499,268.2629,-7.7521e-05,-1.521e-05,0.0,0 STARLINK-5205,1 54202U 22141AX  23071.00872888 -.00001521  00000-0 -77521-4 0  9994,2 54202  53.2169 223.5234 0001188  91.8499 268.2629 15.08831110 21129,6917.908,95.438,540.594,538.951,0.0
54202.0,STARLINK-5205,PAYLOAD,2023-03-12 12:55:39,15.08844895,0.0001341,53.2169,221.1447,82.4277,277.6867,0.0014312,0.00022566,0.0,0 STARLINK-5205,1 54202U 22141AX  23071.53865180  .00022566  00000-0  14312-2 0  9996,2 54202  53.2169 221.1447 0001341  82.4277 277.6867 15.08844895 20974,6917.865,95.437,540.658,538.803,0.0
54202.0,STARLINK-5205,PAYLOAD,2023-03-12 20:52:35,15.0886312,0.0001416,53.2169,219.6581,76.5324,283.5826,0.0025493,0.00040544,0.0,0 STARLINK-5205,1 54202U 22141AX  23071.86985087  .00040544  00000-0  25493-2 0  9999,2 54202  53.2169 219.6581 0001416  76.5324 283.5826 15.08863120 21250,6917.81,95.436,540.654,538.695,0.0
54202.0,STARLINK-5205,PAYLOAD,2023-03-12 22:27:58,15.08868871,0.000145,53.2169,219.3605,76.6721,283.4433,0.0025355,0.00040328,0.0,0 STARLINK-5205,1 54202U 22141AX  23071.93608955  .00040328  00000-0  25355-2 0  9990,2 54202  53.2169 219.3605 0001450  76.6721 283.4433 15.08868871 21031,6917.792,95.436,540.66,538.654,0.0
54202.0,STARLINK-5205,PAYLOAD,2023-03-13 01:38:44,15.0883903,0.0001706,53.217,218.7658,70.6883,289.4293,0.00055642,8.578e-05,0.0,0 STARLINK-5205,1 54202U 22141AX  23072.06857391  .00008578  00000-0  55642-3 0  9999,2 54202  53.2170 218.7658 0001706  70.6883 289.4293 15.08839030 21283,6917.883,95.438,540.929,538.568,0.0
